IRIDIUM 166             
1 43570U 18061B   24107.91072062  .00000236  00000+0  77214-4 0  9991
2 43570  86.4019  27.4106 0002251  78.9388 281.2061 14.34219722299984
IRIDIUM 158             
1 43571U 18061C   24108.15808269 -.00000062  00000+0 -29082-4 0  9994
2 43571  86.4016  27.3164 0001904  80.4639 279.6771 14.34217322299989
IRIDIUM 165             
1 43572U 18061D   24108.18345259  .00000121  00000+0  36019-4 0  9995
2 43572  86.4020  27.3370 0001971  79.0101 281.1317 14.34218658300010
IRIDIUM 155             
1 43573U 18061E   24108.28493014  .00000742  00000+0  25800-3 0  9994
2 43573  86.4017  27.2029 0002337  80.4902 279.6558 14.34227317299994
IRIDIUM 154             
1 43574U 18061F   24108.26592830  .00000931  00000+0  32540-3 0  9998
2 43574  86.4020  27.3054 0002100  90.9132 269.2305 14.34221712300044
IRIDIUM 163             
1 43575U 18061G   24108.31664716  .00000145  00000+0  44625-4 0  9993
2 43575  86.4017  27.2245 0002296  84.9444 275.2014 14.34217389300024
IRIDIUM 156             
1 43576U 18061H   24108.22151000 -.00000046  00000+0 -23471-4 0  9999
2 43576  86.4016  27.2704 0001998  81.0231 279.1191 14.34217160300008
IRIDIUM 164             
1 43577U 18061J   24108.27224952 -.00000009  00000+0 -10147-4 0  9997
2 43577  86.4019  27.2773 0001805  86.0282 274.1120 14.34217672300056
